{"type": "FeatureCollection", "features": [{"type": "Feature", "properties": {"city": "Auckland", "municipality": "Auckland", "place": "Auckland", "exposure_pct": 4}, "geometry": {"type": "Polygon", "coordinates": [[[175.12131253489818, -36.75257083039381], [175.10309464354145, -36.69561955897424], [175.0275180559115, -36.66836120714562], [174.94724956729385, -36.656555793934345], [174.87452810008605, -36.64457994665061], [174.79478417273916, -36.646315086022206], [174.71603372590312, -36.67209986358599], [174.6457480152319, -36.70256100124677], [174.56153526448966, -36.7253917635684], [174.4623908048028, -36.76097298118732], [174.40444267612898, -36.82160925176099], [174.42653279639077, -36.88256541712134], [174.4838014895474, -36.92339140016147], [174.51410117953571, -36.960619558974244], [174.52718110446506, -37.009481325311164], [174.56966626480187, -37.0505492579401], [174.64543012462747, -37.06459675302956], [174.72978417273916, -37.06373178353023], [174.81956134394412, -37.05847019410162], [174.9107480152319, -37.03155446525252], [174.96994833438185, -36.97458800017969], [174.98638426880854, -36.913389678695346], [175.00830724561644, -36.86685946411107], [175.06911609888274, -36.817565417121344], [175.12131253489818, -36.75257083039381]]]}}, {"type": "Feature", "properties": {"city": "Thames-Coromandel", "municipality": "Thames-Coromandel", "place": "Thames-Coromandel", "exposure_pct": 10}, "geometry": {"type": "Polygon", "coordinates": [[[175.91817155265161, -36.733996127734905], [175.8674205256478, -36.642604454318814], [175.7909001268505, -36.59233679392957], [175.72062326285933, -36.5659266157666], [175.65613294922767, -36.53998484594079], [175.59494851047702, -36.53493211058808], [175.54996158135333, -36.567818775232524], [175.5145860518712, -36.60888991437077], [175.46343768694845, -36.63659527498409], [175.4088004586555, -36.68290631871243], [175.40241246963834, -36.77266259142568], [175.45875660040468, -36.87073394976022], [175.5296746117937, -36.940563615360695], [175.57721702414696, -37.00209988248974], [175.61876695375005, -37.080261143310054], [175.67829100944255, -37.14902864827949], [175.74648648860756, -37.17852712169199], [175.81183039826115, -37.18539902872615], [175.87859167530345, -37.185882090233775], [175.9325687541715, -37.15242963271578], [175.9422881671863, -37.0685700631095], [175.91588584794044, -36.97387780867959], [175.90317573668892, -36.902801557046445], [175.91907155612176, -36.83117163559235], [175.91817155265161, -36.733996127734905]]]}}, {"type": "Feature", "properties": {"city": "Hauraki", "municipality": "Hauraki", "place": "Hauraki", "exposure_pct": 24}, "geometry": {"type": "Polygon", "coordinates": [[[175.69909689116955, -37.064893846311634], [175.68511663121183, -36.994582293115684], [175.64012984494417, -36.94659691332152], [175.5934174725888, -36.91562408428292], [175.55101739816567, -36.88607041625427], [175.50544836818196, -36.87099854219888], [175.4619454479073, -36.88418191056305], [175.42358219372284, -36.904632614743846], [175.37676660286095, -36.913200574416265], [175.32219187533136, -36.93343479078582], [175.2927738932878, -36.99171505037018], [175.30922144984655, -37.06752648201123], [175.34456610008516, -37.127407190271725], [175.36423904254195, -37.17731130761164], [175.37477273608135, -37.23708891798941], [175.40166449197872, -37.294082529065356], [175.4459361945501, -37.32670398357149], [175.49420005193238, -37.343778782619616], [175.54529657318744, -37.356889632008915], [175.59585251908908, -37.34505356718474], [175.62621619032976, -37.29132079777339], [175.63182114775168, -37.223486016710595], [175.64148212743075, -37.17393076714816], [175.67324475582288, -37.129488989669696], [175.69909689116955, -37.064893846311634]]]}}, {"type": "Feature", "properties": {"city": "Porirua", "municipality": "Porirua", "place": "Porirua", "exposure_pct": 3}, "geometry": {"type": "Polygon", "coordinates": [[[174.9623157120207, -41.1333], [174.9614499368462, -41.103437079425554], [174.94146618009978, -41.08049197629764], [174.91889710724567, -41.06440289275432], [174.8985504508992, -41.04920815231221], [174.8750729339206, -41.0397265367135], [174.85, -41.04198857027474], [174.8270379679641, -41.04760452979695], [174.8005978749496, -41.047733009410834], [174.76878718073363, -41.052087180733615], [174.7470697820307, -41.07387321094768], [174.74875487328978, -41.106171450060415], [174.7623157120207, -41.1333], [174.7682647715884, -41.15520088844606], [174.7682610993429, -41.18049197629764], [174.77747575100835, -41.20582424899163], [174.7985504508992, -41.2224132330691], [174.82330912490008, -41.23291170197132], [174.85, -41.24198857027474], [174.87880177698457, -41.240789695054765], [174.9005978749496, -41.22093809016772], [174.9102085369709, -41.193508536970924], [174.92027486278758, -41.173873210947676], [174.9419400385476, -41.157935259080915], [174.9623157120207, -41.1333]]]}}, {"type": "Feature", "properties": {"city": "Napier", "municipality": "Napier", "place": "Napier", "exposure_pct": 26}, "geometry": {"type": "Polygon", "coordinates": [[[177.13321876796616, -39.531806837431525], [177.13981055053787, -39.484451379734004], [177.10682523393274, -39.44135666912363], [177.06684298214287, -39.40816706563843], [177.03098955468775, -39.37715850893822], [176.98738221763583, -39.354064743174966], [176.93736970139514, -39.348921273708704], [176.89058300522836, -39.349795668436485], [176.83847049164498, -39.34081556484964], [176.77460590479507, -39.33662866137038], [176.72577801244685, -39.36341437029299], [176.7201233457378, -39.414891686404665], [176.73929566676128, -39.46234756636475], [176.74492814774337, -39.49892271665353], [176.73789411272506, -39.53877241633341], [176.7490051887448, -39.58188850095325], [176.78590520946756, -39.61534680362961], [176.8317534136993, -39.640487758584484], [176.88180228454172, -39.66405975467261], [176.93886380308714, -39.67217344826805], [176.9873092476297, -39.64846313060781], [177.013859503653, -39.60858033986038], [177.03914171680114, -39.58113710404712], [177.08624193699467, -39.56354803092141], [177.13321876796616, -39.531806837431525]]]}}, {"type": "Feature", "properties": {"city": "Wellington", "municipality": "Wellington", "place": "Wellington", "exposure_pct": 2}, "geometry": {"type": "Polygon", "coordinates": [[[174.89015104627975, -41.33288162689388], [174.89933620249118, -41.307605293270065], [174.88669057244792, -41.28022374528238], [174.86909669358835, -41.25749798478758], [174.85346793816296, -41.23643430779305], [174.83271985415388, -41.21884791106161], [174.80638527726637, -41.210403764959196], [174.78107285143864, -41.205628187797636], [174.7540632249673, -41.194840303107775], [174.72015143552196, -41.185365563349336], [174.69065674043108, -41.19459622445141], [174.68148614878626, -41.22224236062983], [174.68617059827505, -41.25046817634237], [174.684854261962, -41.271195124125995], [174.6763237291931, -41.29229815040225], [174.67718110032808, -41.31723411341638], [174.69308232542244, -41.339761241483345], [174.71479423639155, -41.358724090038244], [174.73895609045152, -41.37729685878122], [174.76873528322065, -41.38816470792495], [174.79765806023144, -41.38058068734957], [174.81670775828886, -41.36165191147004], [174.83359439687106, -41.34941491315355], [174.86106417382857, -41.34504275212834], [174.89015104627975, -41.33288162689388]]]}}, {"type": "Feature", "properties": {"city": "Christchurch", "municipality": "Christchurch", "place": "Christchurch", "exposure_pct": 8}, "geometry": {"type": "Polygon", "coordinates": [[[172.9280429600414, -43.52190861926461], [172.92402157431874, -43.471251139457834], [172.87073414470953, -43.434081525890015], [172.8111357497485, -43.40879463376335], [172.75736517834454, -43.38482553956659], [172.69579828291864, -43.37084693132224], [172.630782571001, -43.376965131041985], [172.57145084618972, -43.388589991114806], [172.50275610407235, -43.39120741284702], [172.42035701173, -43.40149145570828], [172.36521871873128, -43.44047575392803], [172.37151351396557, -43.49519640957908], [172.40835972999147, -43.54005635754991], [172.42511722342397, -43.57672537759767], [172.42660818000496, -43.61969436885956], [172.45205462177591, -43.66189687305396], [172.50779967256562, -43.68816867584185], [172.57275587612574, -43.70375863114322], [172.64264839987985, -43.71675801222848], [172.71741627411146, -43.71210773034824], [172.77287382834336, -43.676402810836976], [172.79621895583188, -43.62892891738943], [172.8212105123147, -43.59465579214498], [172.8765600698599, -43.56561190952189], [172.9280429600414, -43.52190861926461]]]}}, {"type": "Feature", "properties": {"city": "Invercargill", "municipality": "Invercargill", "place": "Invercargill", "exposure_pct": 9}, "geometry": {"type": "Polygon", "coordinates": [[[168.5559682816373, -46.4132], [168.5544098863232, -46.37437820325322], [168.51843912417962, -46.34454956918694], [168.47781479304223, -46.32363376058063], [168.44119081161855, -46.303880598005875], [168.3989312810571, -46.29155449772756], [168.3538, -46.29449514135717], [168.31246834233536, -46.30179588873604], [168.2648761749093, -46.30196291223409], [168.2076169253205, -46.30762333495371], [168.16852560765528, -46.33594517423199], [168.17155877192164, -46.37793288507854], [168.19596828163728, -46.4132], [168.20667658885915, -46.44167115497988], [168.20666997881722, -46.474549569186934], [168.22325635181505, -46.50748152368913], [168.26119081161858, -46.52904720298983], [168.30575642482017, -46.54269521256272], [168.3538, -46.55449514135717], [168.40564319857228, -46.5529366035712], [168.4448761749093, -46.52712951721804], [168.46217536654768, -46.49147109806221], [168.48029475301766, -46.46594517423199], [168.5192920693857, -46.4452258368052], [168.5559682816373, -46.4132]]]}}, {"type": "Feature", "properties": {"city": "Buller", "municipality": "Buller", "place": "Buller", "exposure_pct": 18}, "geometry": {"type": "Polygon", "coordinates": [[[172.10394372970404, -41.85442667615679], [172.11988634219978, -41.81573071643395], [172.09361701406112, -41.76803715935279], [172.0581364125467, -41.72663900782541], [172.02655788446592, -41.6884419408246], [171.98535654572228, -41.65458291363942], [171.93402582879057, -41.63414123627237], [171.88491958835004, -41.61991775631458], [171.8321252745707, -41.59549782968884], [171.76612244559487, -41.57144622016763], [171.70993057705888, -41.57889703609531], [171.69418068604529, -41.621444770702276], [171.70516830340793, -41.66847464099089], [171.70407199566586, -41.70179436369893], [171.68910080784002, -41.73388106319882], [171.6924854575977, -41.774590849759775], [171.72469068910206, -41.81523388206364], [171.7678448604485, -41.85157429292128], [171.81569271550316, -41.88790741664263], [171.87382925316487, -41.91316499194946], [171.92903350550299, -41.908241806093784], [171.964425106855, -41.8823739521845], [171.99611366999258, -41.86681931261953], [172.0487413058091, -41.866740164402785], [172.10394372970404, -41.85442667615679]]]}}, {"type": "Feature", "properties": {"city": "Sicily", "municipality": "Catania", "place": "Catania", "exposure_pct": 26}, "geometry": {"type": "Polygon", "coordinates": [[[15.452397860244613, 37.64234982573066], [15.425037462445088, 37.70866215044565], [15.34047795191434, 37.73648741055448], [15.253043285065155, 37.745755742585516], [15.173652097643442, 37.75566748558987], [15.088653356073898, 37.748946772669996], [15.00804716412343, 37.71383122409496], [14.937136632978715, 37.6736785911551], [14.850282634211887, 37.64173818051863], [14.749233787372681, 37.59383873844802], [14.695689936632544, 37.518708268700316], [14.727744030097087, 37.44788444103847], [14.794613025694478, 37.4029357254027], [14.832156339524492, 37.360664921296284], [14.85290440936794, 37.303622488657645], [14.90400465406411, 37.25752215702537], [14.986934784076865, 37.24533754837818], [15.076981836296401, 37.25129862566766], [15.172216832919752, 37.26277876611773], [15.265959598723589, 37.299960301814686], [15.321350155195447, 37.37082234363491], [15.330443390515782, 37.44418782059503], [15.347433147975266, 37.50052073261991], [15.405605626843005, 37.562399737258204], [15.452397860244613, 37.64234982573066]]]}}, {"type": "Feature", "properties": {"city": "Rhodes", "municipality": "Rhodes", "place": "Rhodes Old Town", "exposure_pct": 18}, "geometry": {"type": "Polygon", "coordinates": [[[28.375005832172057, 36.54607463335531], [28.356742442203412, 36.56974236460948], [28.317390095413334, 36.5701983535759], [28.278581772744555, 36.562665617844075], [28.24319921944543, 36.55643984031749], [28.206990138514918, 36.5426608842816], [28.175425915540067, 36.51779794432639], [28.14855206481631, 36.49212485079267], [28.113972227704974, 36.46775494352944], [28.07477720545992, 36.43499483178719], [28.058809396561728, 36.39721821955267], [28.079543458971948, 36.37230749677945], [28.112877177999582, 36.36253017372297], [28.133236106437757, 36.35004960079901], [28.147737665475248, 36.329328984381505], [28.17434478137042, 36.31703449272092], [28.211481245337623, 36.322786314518076], [28.249952709192453, 36.33690805945846], [28.290141202810275, 36.35396753546859], [28.327202411427706, 36.38138162952133], [28.344382907769646, 36.41764587736237], [28.34124611190311, 36.44893477077453], [28.34317711377002, 36.474257179889264], [28.362430796957476, 36.50719540063126], [28.375005832172057, 36.54607463335531]]]}}, {"type": "Feature", "properties": {"city": "Costa del Sol", "municipality": "Malaga", "place": "Malaga", "exposure_pct": 31}, "geometry": {"type": "Polygon", "coordinates": [[[-4.062556364333805, 36.590691597861635], [-4.053066012529077, 36.62537273984785], [-4.1074959893272505, 36.67448483373726], [-4.172999810680471, 36.71887224904408], [-4.2317701715258265, 36.759666797093324], [-4.302888295455752, 36.797659826801436], [-4.3839235820617155, 36.82426561204748], [-4.459591164610699, 36.844634704640605], [-4.544118800765108, 36.875236177994516], [-4.6475395916222055, 36.90731793266366], [-4.725867214666681, 36.90800580504752], [-4.733739402118108, 36.869625765173744], [-4.701547346468223, 36.8232652953231], [-4.691529023394858, 36.791651197509005], [-4.701920829843904, 36.76313644949664], [-4.682877410300284, 36.723855561791424], [-4.622353214447281, 36.6806422023002], [-4.547559192772749, 36.640012720008684], [-4.466008416459876, 36.59873938305886], [-4.373495990277392, 36.56659859326198], [-4.295710861552145, 36.56363788573994], [-4.2537474780734215, 36.58339236820976], [-4.213527208548188, 36.593827960299514], [-4.137766628164987, 36.586606341047776], [-4.062556364333805, 36.590691597861635]]]}}, {"type": "Feature", "properties": {"city": "Dubai", "municipality": "Dubai", "place": "Burj Khalifa", "exposure_pct": 41}, "geometry": {"type": "Polygon", "coordinates": [[[55.517740644762775, 25.24010752117467], [55.50860497770095, 25.28094970254879], [55.459730503346556, 25.304950509712135], [55.4069214918588, 25.318511053189326], [55.35914493845641, 25.331687559107095], [55.305974037445935, 25.335791133394007], [55.25220151127927, 25.323093885504885], [55.20381778108836, 25.30657889579474], [55.14656451653924, 25.296300954254455], [55.078702727777156, 25.278145211929154], [55.03694665624118, 25.239811529123582], [55.048449478810745, 25.19592469897993], [55.08442523343741, 25.16370232300122], [55.102638598520414, 25.13577958774195], [55.10877909416085, 25.100908581691034], [55.13490181122931, 25.069502432153374], [55.184594678084245, 25.054681771073685], [55.24078850911752, 25.04966566504391], [55.300823001026004, 25.047347714661466], [55.362932814734826, 25.060003668308884], [55.40532966749245, 25.095700364394496], [55.419483578629276, 25.137189858385895], [55.43651955517362, 25.168107286301264], [55.4795841930867, 25.19835809253003], [55.517740644762775, 25.24010752117467]]]}}]}